{
  "type": "FeatureCollection",
  "features": [
    {
      "type": "Feature",
      "properties": {
        "norad_id": 41026,
        "name": "YAOGAN-28",
        "group": "resource",
        "lat": 11.048457937248902,
        "lon": 137.42274693913717,
        "alt_km": 490.300085248542,
        "timestamp": "2025-12-27T11:23:19.534669+00:00",
        "meta_object_name": "YAOGAN-28",
        "meta_object_id": "2015-064A",
        "meta_epoch": "2025-12-27T05:02:21.254208",
        "meta_mean_motion": 15.24585105,
        "meta_eccentricity": 0.0012632,
        "meta_inclination": 97.2814,
        "meta_ra_of_asc_node": 138.5962,
        "meta_arg_of_pericenter": 80.1646,
        "meta_mean_anomaly": 280.1018,
        "meta_ephemeris_type": 0,
        "meta_classification_type": "U",
        "meta_norad_cat_id": 41026,
        "meta_element_set_no": 999,
        "meta_rev_at_epoch": 56445,
        "meta_bstar": 0.00039249,
        "meta_mean_motion_dot": 9.629e-05,
        "meta_mean_motion_ddot": 0,
        "tle_line1": "1 41026U 15064A   25361.20996822  .00009629  00000+0  39249-3 0  9999",
        "tle_line2": "2 41026  97.2814 138.5962 0012632  80.1646 280.1018 15.24585105564459"
      },
      "geometry": {
        "type": "Point",
        "coordinates": [
          137.42274693913717,
          11.048457937248902
        ]
      }
    },
    {
      "type": "Feature",
      "properties": {
        "norad_id": 41038,
        "name": "YAOGAN-29",
        "group": "resource",
        "lat": 65.1061078295326,
        "lon": 7.002997291948672,
        "alt_km": 613.8570154856543,
        "timestamp": "2025-12-27T11:23:19.534679+00:00",
        "meta_object_name": "YAOGAN-29",
        "meta_object_id": "2015-069A",
        "meta_epoch": "2025-12-27T04:36:46.152576",
        "meta_mean_motion": 14.82898242,
        "meta_eccentricity": 0.0001012,
        "meta_inclination": 98.0209,
        "meta_ra_of_asc_node": 24.4094,
        "meta_arg_of_pericenter": 158.6655,
        "meta_mean_anomaly": 201.46,
        "meta_ephemeris_type": 0,
        "meta_classification_type": "U",
        "meta_norad_cat_id": 41038,
        "meta_element_set_no": 999,
        "meta_rev_at_epoch": 54513,
        "meta_bstar": 5.2976e-05,
        "meta_mean_motion_dot": 3.75e-06,
        "meta_mean_motion_ddot": 0,
        "tle_line1": "1 41038U 15069A   25361.19220084  .00000375  00000+0  52976-4 0  9997",
        "tle_line2": "2 41038  98.0209  24.4094 0001012 158.6655 201.4600 14.82898242545138"
      },
      "geometry": {
        "type": "Point",
        "coordinates": [
          7.002997291948672,
          65.1061078295326
        ]
      }
    },
    {
      "type": "Feature",
      "properties": {
        "norad_id": 41167,
        "name": "KENT RIDGE 1",
        "group": "resource",
        "lat": 14.600286080522107,
        "lon": -155.16765743526233,
        "alt_km": 498.98834413317763,
        "timestamp": "2025-12-27T11:23:19.534689+00:00",
        "meta_object_name": "KENT RIDGE 1",
        "meta_object_id": "2015-077B",
        "meta_epoch": "2025-12-26T22:21:21.397824",
        "meta_mean_motion": 15.21743128,
        "meta_eccentricity": 0.0008527,
        "meta_inclination": 14.9792,
        "meta_ra_of_asc_node": 105.8239,
        "meta_arg_of_pericenter": 331.0402,
        "meta_mean_anomaly": 28.9446,
        "meta_ephemeris_type": 0,
        "meta_classification_type": "U",
        "meta_norad_cat_id": 41167,
        "meta_element_set_no": 999,
        "meta_rev_at_epoch": 55480,
        "meta_bstar": 0.00017735,
        "meta_mean_motion_dot": 4.899e-05,
        "meta_mean_motion_ddot": 0,
        "tle_line1": "1 41167U 15077B   25360.93149766  .00004899  00000+0  17735-3 0  9995",
        "tle_line2": "2 41167  14.9792 105.8239 0008527 331.0402  28.9446 15.21743128554805"
      },
      "geometry": {
        "type": "Point",
        "coordinates": [
          -155.16765743526233,
          14.600286080522107
        ]
      }
    },
    {
      "type": "Feature",
      "properties": {
        "norad_id": 41194,
        "name": "GAOFEN-4",
        "group": "resource",
        "lat": -0.19016130492467961,
        "lon": 12.710648258985655,
        "alt_km": 35798.37007118661,
        "timestamp": "2025-12-27T11:23:19.534701+00:00",
        "meta_object_name": "GAOFEN-4",
        "meta_object_id": "2015-083A",
        "meta_epoch": "2025-12-27T01:36:38.752416",
        "meta_mean_motion": 1.00268854,
        "meta_eccentricity": 0.000282,
        "meta_inclination": 0.2047,
        "meta_ra_of_asc_node": 82.023,
        "meta_arg_of_pericenter": 94.6695,
        "meta_mean_anomaly": 48.967,
        "meta_ephemeris_type": 0,
        "meta_classification_type": "U",
        "meta_norad_cat_id": 41194,
        "meta_element_set_no": 999,
        "meta_rev_at_epoch": 3680,
        "meta_bstar": 0,
        "meta_mean_motion_dot": -3.12e-06,
        "meta_mean_motion_ddot": 0,
        "tle_line1": "1 41194U 15083A   25361.06711519 -.00000312  00000+0  00000+0 0  9998",
        "tle_line2": "2 41194   0.2047  82.0230 0002820  94.6695  48.9670  1.00268854 36805"
      },
      "geometry": {
        "type": "Point",
        "coordinates": [
          12.710648258985655,
          -0.19016130492467961
        ]
      }
    },
    {
      "type": "Feature",
      "properties": {
        "norad_id": 41240,
        "name": "JASON-3",
        "group": "resource",
        "lat": -24.723920878655235,
        "lon": -41.3402189875627,
        "alt_km": 1313.05959020082,
        "timestamp": "2025-12-27T11:23:19.534712+00:00",
        "meta_object_name": "JASON-3",
        "meta_object_id": "2016-002A",
        "meta_epoch": "2025-12-27T02:51:34.370784",
        "meta_mean_motion": 12.87627196,
        "meta_eccentricity": 0.0007336,
        "meta_inclination": 66.0408,
        "meta_ra_of_asc_node": 127.5931,
        "meta_arg_of_pericenter": 271.7071,
        "meta_mean_anomaly": 88.3107,
        "meta_ephemeris_type": 0,
        "meta_classification_type": "U",
        "meta_norad_cat_id": 41240,
        "meta_element_set_no": 999,
        "meta_rev_at_epoch": 46509,
        "meta_bstar": 0.0001702,
        "meta_mean_motion_dot": -1.9e-07,
        "meta_mean_motion_ddot": 0,
        "tle_line1": "1 41240U 16002A   25361.11914781 -.00000019  00000+0  17020-3 0  9992",
        "tle_line2": "2 41240  66.0408 127.5931 0007336 271.7071  88.3107 12.87627196465099"
      },
      "geometry": {
        "type": "Point",
        "coordinates": [
          -41.3402189875627,
          -24.723920878655235
        ]
      }
    },
    {
      "type": "Feature",
      "properties": {
        "norad_id": 41335,
        "name": "SENTINEL-3A",
        "group": "resource",
        "lat": 31.108867631034894,
        "lon": 61.023252786254176,
        "alt_km": 800.6414846152784,
        "timestamp": "2025-12-27T11:23:19.534737+00:00",
        "meta_object_name": "SENTINEL-3A",
        "meta_object_id": "2016-011A",
        "meta_epoch": "2025-12-27T04:30:32.755968",
        "meta_mean_motion": 14.26736341,
        "meta_eccentricity": 8.88e-05,
        "meta_inclination": 98.6295,
        "meta_ra_of_asc_node": 65.9986,
        "meta_arg_of_pericenter": 98.1163,
        "meta_mean_anomaly": 262.0118,
        "meta_ephemeris_type": 0,
        "meta_classification_type": "U",
        "meta_norad_cat_id": 41335,
        "meta_element_set_no": 999,
        "meta_rev_at_epoch": 51353,
        "meta_bstar": 8.43e-05,
        "meta_mean_motion_dot": 1.6e-06,
        "meta_mean_motion_ddot": 0,
        "tle_line1": "1 41335U 16011A   25361.18787912  .00000160  00000+0  84300-4 0  9990",
        "tle_line2": "2 41335  98.6295  65.9986 0000888  98.1163 262.0118 14.26736341513536"
      },
      "geometry": {
        "type": "Point",
        "coordinates": [
          61.023252786254176,
          31.108867631034894
        ]
      }
    },
    {
      "type": "Feature",
      "properties": {
        "norad_id": 41556,
        "name": "ZIYUAN 3-02 (ZY 3-02)",
        "group": "resource",
        "lat": 69.7848611169623,
        "lon": -83.93135026132764,
        "alt_km": 494.23947040007806,
        "timestamp": "2025-12-27T11:23:19.534748+00:00",
        "meta_object_name": "ZIYUAN 3-02 (ZY 3-02)",
        "meta_object_id": "2016-033A",
        "meta_epoch": "2025-12-27T04:35:48.516000",
        "meta_mean_motion": 15.21263774,
        "meta_eccentricity": 0.0011607,
        "meta_inclination": 97.4022,
        "meta_ra_of_asc_node": 75.1158,
        "meta_arg_of_pericenter": 192.4608,
        "meta_mean_anomaly": 167.6343,
        "meta_ephemeris_type": 0,
        "meta_classification_type": "U",
        "meta_norad_cat_id": 41556,
        "meta_element_set_no": 999,
        "meta_rev_at_epoch": 53183,
        "meta_bstar": 0.00037752,
        "meta_mean_motion_dot": 8.385e-05,
        "meta_mean_motion_ddot": 0,
        "tle_line1": "1 41556U 16033A   25361.19153375  .00008385  00000+0  37752-3 0  9995",
        "tle_line2": "2 41556  97.4022  75.1158 0011607 192.4608 167.6343 15.21263774531837"
      },
      "geometry": {
        "type": "Point",
        "coordinates": [
          -83.93135026132764,
          69.7848611169623
        ]
      }
    }
  ]
}